GLOBALSTAR M035         
1 25851U 99037A   24236.63995645 -.00000105  00000+0 -15556-2 0  9994
2 25851  51.9995 358.5206 0013376 217.1619 155.5791 11.04531966 63386
GLOBALSTAR M032         
1 25852U 99037B   24236.34818424 -.00000044  00000+0  73591-3 0  9997
2 25852  51.9915 204.9171 0010448  23.0747 337.0520 11.19059845101441
GLOBALSTAR M051         
1 25853U 99037C   24236.77347496 -.00000075  00000+0 -68629-4 0  9993
2 25853  51.9814  38.3603 0002021  61.7956 298.3058 11.42198555 98424
GLOBALSTAR M030         
1 25854U 99037D   24236.40390049 -.00000072  00000+0  59776-4 0  9995
2 25854  51.9842 224.2956 0003677 233.8730 126.1747 11.55100186115636
GLOBALSTAR M048         
1 25872U 99041A   24236.50361293 -.00000042  00000+0  75551-3 0  9995
2 25872  51.9398 322.5417 0013220  31.3069  58.6619 11.33848281 91212
GLOBALSTAR M043         
1 25874U 99041C   24236.29074363 -.00000039  00000+0  87223-3 0  9997
2 25874  51.9410  58.8128 0012902 159.0173  12.1127 11.25687734 89320
GLOBALSTAR M028         
1 25875U 99041D   24236.67328205 -.00000081  00000+0  12755-3 0  9992
2 25875  51.9651   0.1851 0064067 144.9715 215.5385 12.50561924152984
